{
  "type": "FeatureCollection",
  "features": [
    {
      "type": "Feature",
      "properties": {
        "norad_id": 66683,
        "name": "TRANSPORTER-15T",
        "group": "last-30-days",
        "lat": -42.45840166206354,
        "lon": -114.91439214064137,
        "alt_km": 518.0456434574262,
        "timestamp": "2025-12-26T10:30:48.973756+00:00",
        "meta_object_name": "TRANSPORTER-15T",
        "meta_object_id": "2025-276T",
        "meta_epoch": "2025-12-26T03:12:07.884576",
        "meta_mean_motion": 15.17068853,
        "meta_eccentricity": 0.0004839,
        "meta_inclination": 97.4443,
        "meta_ra_of_asc_node": 71.6577,
        "meta_arg_of_pericenter": 227.9205,
        "meta_mean_anomaly": 132.1617,
        "meta_ephemeris_type": 0,
        "meta_classification_type": "U",
        "meta_norad_cat_id": 66683,
        "meta_element_set_no": 999,
        "meta_rev_at_epoch": 415,
        "meta_bstar": 0.00040136,
        "meta_mean_motion_dot": 7.884e-05,
        "meta_mean_motion_ddot": 0,
        "tle_line1": "1 66683U 25276T   25360.13342459  .00007884  00000+0  40136-3 0  9991",
        "tle_line2": "2 66683  97.4443  71.6577 0004839 227.9205 132.1617 15.17068853  4151"
      },
      "geometry": {
        "type": "Point",
        "coordinates": [
          -114.91439214064137,
          -42.45840166206354
        ]
      }
    },
    {
      "type": "Feature",
      "properties": {
        "norad_id": 66684,
        "name": "TRANSPORTER-15U",
        "group": "last-30-days",
        "lat": -63.11763992413325,
        "lon": -122.97822330237918,
        "alt_km": 517.9041239705211,
        "timestamp": "2025-12-26T10:30:48.973792+00:00",
        "meta_object_name": "TRANSPORTER-15U",
        "meta_object_id": "2025-276U",
        "meta_epoch": "2025-12-26T03:06:38.024064",
        "meta_mean_motion": 15.17397562,
        "meta_eccentricity": 0.0004634,
        "meta_inclination": 97.4469,
        "meta_ra_of_asc_node": 71.6711,
        "meta_arg_of_pericenter": 225.381,
        "meta_mean_anomaly": 134.7046,
        "meta_ephemeris_type": 0,
        "meta_classification_type": "U",
        "meta_norad_cat_id": 66684,
        "meta_element_set_no": 999,
        "meta_rev_at_epoch": 415,
        "meta_bstar": 0.00055469,
        "meta_mean_motion_dot": 0.0001103,
        "meta_mean_motion_ddot": 0,
        "tle_line1": "1 66684U 25276U   25360.12960676  .00011030  00000+0  55469-3 0  9991",
        "tle_line2": "2 66684  97.4469  71.6711 0004634 225.3810 134.7046 15.17397562  4153"
      },
      "geometry": {
        "type": "Point",
        "coordinates": [
          -122.97822330237918,
          -63.11763992413325
        ]
      }
    },
    {
      "type": "Feature",
      "properties": {
        "norad_id": 66685,
        "name": "TRANSPORTER-15V",
        "group": "last-30-days",
        "lat": -71.29064477820408,
        "lon": -130.74289019691003,
        "alt_km": 519.1441223086686,
        "timestamp": "2025-12-26T10:30:48.973803+00:00",
        "meta_object_name": "TRANSPORTER-15V",
        "meta_object_id": "2025-276V",
        "meta_epoch": "2025-12-26T03:04:19.748640",
        "meta_mean_motion": 15.17397324,
        "meta_eccentricity": 0.0003214,
        "meta_inclination": 97.4413,
        "meta_ra_of_asc_node": 71.6542,
        "meta_arg_of_pericenter": 231.2605,
        "meta_mean_anomaly": 128.8342,
        "meta_ephemeris_type": 0,
        "meta_classification_type": "U",
        "meta_norad_cat_id": 66685,
        "meta_element_set_no": 999,
        "meta_rev_at_epoch": 415,
        "meta_bstar": -0.0041619,
        "meta_mean_motion_dot": -0.00082255,
        "meta_mean_motion_ddot": 0,
        "tle_line1": "1 66685U 25276V   25360.12800635 -.00082255  00000+0 -41619-2 0  9990",
        "tle_line2": "2 66685  97.4413  71.6542 0003214 231.2605 128.8342 15.17397324  4155"
      },
      "geometry": {
        "type": "Point",
        "coordinates": [
          -130.74289019691003,
          -71.29064477820408
        ]
      }
    },
    {
      "type": "Feature",
      "properties": {
        "norad_id": 66686,
        "name": "TRANSPORTER-15W",
        "group": "last-30-days",
        "lat": -62.83909375376573,
        "lon": -122.80543440263065,
        "alt_km": 505.9038804041802,
        "timestamp": "2025-12-26T10:30:48.973817+00:00",
        "meta_object_name": "TRANSPORTER-15W",
        "meta_object_id": "2025-276W",
        "meta_epoch": "2025-12-24T16:18:47.855520",
        "meta_mean_motion": 15.18035485,
        "meta_eccentricity": 0.00181838,
        "meta_inclination": 97.4405,
        "meta_ra_of_asc_node": 70.2223,
        "meta_arg_of_pericenter": 243.6801,
        "meta_mean_anomaly": 116.2566,
        "meta_ephemeris_type": 0,
        "meta_classification_type": "U",
        "meta_norad_cat_id": 66686,
        "meta_element_set_no": 999,
        "meta_rev_at_epoch": 393,
        "meta_bstar": 0.0029615296,
        "meta_mean_motion_dot": 0.00060911,
        "meta_mean_motion_ddot": 0,
        "tle_line1": "1 66686U 25276W   25358.67972055  .00060911  00000+0  29615-2 0  9999",
        "tle_line2": "2 66686  97.4405  70.2223 0018183 243.6801 116.2566 15.18035485  3936"
      },
      "geometry": {
        "type": "Point",
        "coordinates": [
          -122.80543440263065,
          -62.83909375376573
        ]
      }
    },
    {
      "type": "Feature",
      "properties": {
        "norad_id": 66687,
        "name": "TRANSPORTER-15X",
        "group": "last-30-days",
        "lat": -14.219327415103619,
        "lon": -109.97544680148708,
        "alt_km": 525.1801937616465,
        "timestamp": "2025-12-26T10:30:48.973827+00:00",
        "meta_object_name": "TRANSPORTER-15X",
        "meta_object_id": "2025-276X",
        "meta_epoch": "2025-12-26T03:19:38.127936",
        "meta_mean_motion": 15.16789039,
        "meta_eccentricity": 0.0008104,
        "meta_inclination": 97.4384,
        "meta_ra_of_asc_node": 71.628,
        "meta_arg_of_pericenter": 43.5324,
        "meta_mean_anomaly": 316.6548,
        "meta_ephemeris_type": 0,
        "meta_classification_type": "U",
        "meta_norad_cat_id": 66687,
        "meta_element_set_no": 999,
        "meta_rev_at_epoch": 415,
        "meta_bstar": 0.00066308,
        "meta_mean_motion_dot": 0.00012981,
        "meta_mean_motion_ddot": 0,
        "tle_line1": "1 66687U 25276X   25360.13863574  .00012981  00000+0  66308-3 0  9994",
        "tle_line2": "2 66687  97.4384  71.6280 0008104  43.5324 316.6548 15.16789039  4150"
      },
      "geometry": {
        "type": "Point",
        "coordinates": [
          -109.97544680148708,
          -14.219327415103619
        ]
      }
    },
    {
      "type": "Feature",
      "properties": {
        "norad_id": 66688,
        "name": "TRANSPORTER-15Y",
        "group": "last-30-days",
        "lat": -52.411312615113275,
        "lon": -117.82177972853387,
        "alt_km": 518.9122724687759,
        "timestamp": "2025-12-26T10:30:48.973839+00:00",
        "meta_object_name": "TRANSPORTER-15Y",
        "meta_object_id": "2025-276Y",
        "meta_epoch": "2025-12-25T12:54:40.837824",
        "meta_mean_motion": 15.17117879,
        "meta_eccentricity": 0.0003764,
        "meta_inclination": 97.4426,
        "meta_ra_of_asc_node": 71.0715,
        "meta_arg_of_pericenter": 234.2435,
        "meta_mean_anomaly": 125.8449,
        "meta_ephemeris_type": 0,
        "meta_classification_type": "U",
        "meta_norad_cat_id": 66688,
        "meta_element_set_no": 999,
        "meta_rev_at_epoch": 406,
        "meta_bstar": 0.00056854,
        "meta_mean_motion_dot": 0.00011216,
        "meta_mean_motion_ddot": 0,
        "tle_line1": "1 66688U 25276Y   25359.53797266  .00011216  00000+0  56854-3 0  9996",
        "tle_line2": "2 66688  97.4426  71.0715 0003764 234.2435 125.8449 15.17117879  4062"
      },
      "geometry": {
        "type": "Point",
        "coordinates": [
          -117.82177972853387,
          -52.411312615113275
        ]
      }
    },
    {
      "type": "Feature",
      "properties": {
        "norad_id": 66689,
        "name": "TRANSPORTER-15Z",
        "group": "last-30-days",
        "lat": 82.3243839781199,
        "lon": -3.8367326321531383,
        "alt_km": 448.0618820365826,
        "timestamp": "2025-12-26T10:30:48.973849+00:00",
        "meta_object_name": "TRANSPORTER-15Z",
        "meta_object_id": "2025-276Z",
        "meta_epoch": "2025-12-22T21:27:46.425312",
        "meta_mean_motion": 15.23073772,
        "meta_eccentricity": 0.00272271,
        "meta_inclination": 97.4409,
        "meta_ra_of_asc_node": 68.4858,
        "meta_arg_of_pericenter": 260.8557,
        "meta_mean_anomaly": 98.9599,
        "meta_ephemeris_type": 0,
        "meta_classification_type": "U",
        "meta_norad_cat_id": 66689,
        "meta_element_set_no": 999,
        "meta_rev_at_epoch": 366,
        "meta_bstar": 0.086131248,
        "meta_mean_motion_dot": 0.02294864,
        "meta_mean_motion_ddot": 0,
        "tle_line1": "1 66689U 25276Z   25356.89428733  .02294864  00000+0  86131-1 0  9996",
        "tle_line2": "2 66689  97.4409  68.4858 0027227 260.8557  98.9599 15.23073772  3663"
      },
      "geometry": {
        "type": "Point",
        "coordinates": [
          -3.8367326321531383,
          82.3243839781199
        ]
      }
    }
  ]
}